{"type": "FeatureCollection", "features": [ {"type": "Feature", "properties": {"norad_id": 34031, "name": "COSMOS 2251 DEB", "group": "cosmos-2251-debris", "lat": -10.314344984961158, "lon": -56.33241045268162, "alt_km": 687.2739084414734, "timestamp": "2025-12-20T14:38:02.362609+00:00", "meta": {"OBJECT_NAME": "COSMOS 2251 DEB", "OBJECT_ID": "1993-036HS", "EPOCH": "2025-12-19T03:29:25.717056", "MEAN_MOTION": 14.59757227, "ECCENTRICITY": 0.00229414, "INCLINATION": 74.0127, "RA_OF_ASC_NODE": 123.4727, "ARG_OF_PERICENTER": 243.4611, "MEAN_ANOMALY": 175.3292, "EPHEMERIS_TYPE": 0, "CLASSIFICATION_TYPE": "U", "NORAD_CAT_ID": 34031, "ELEMENT_SET_NO": 999, "REV_AT_EPOCH": 88659, "BSTAR": 0.00097665147, "MEAN_MOTION_DOT": 4.652e-05, "MEAN_MOTION_DDOT": 0}, "tle": {"line1": "1 34031U 93036HS  25353.14543654  .00004652  00000+0  97665-3 0  9994", "line2": "2 34031  74.0127 123.4727 0022941 243.4611 175.3292 14.59757227886593"}}, "geometry": {"type": "Point", "coordinates": [-56.33241045268162, -10.314344984961158]}}, {"type": "Feature", "properties": {"norad_id": 34035, "name": "COSMOS 2251 DEB", "group": "cosmos-2251-debris", "lat": 42.88174231889547, "lon": 138.95263659436358, "alt_km": 745.3405172183066, "timestamp": "2025-12-20T14:38:02.362619+00:00", "meta": {"OBJECT_NAME": "COSMOS 2251 DEB", "OBJECT_ID": "1993-036HW", "EPOCH": "2025-12-19T23:16:23.806272", "MEAN_MOTION": 14.52026861, "ECCENTRICITY": 0.00451394, "INCLINATION": 74.0654, "RA_OF_ASC_NODE": 335.5416, "ARG_OF_PERICENTER": 335.5807, "MEAN_ANOMALY": 54.8592, "EPHEMERIS_TYPE": 0, "CLASSIFICATION_TYPE": "U", "NORAD_CAT_ID": 34035, "ELEMENT_SET_NO": 999, "REV_AT_EPOCH": 88071, "BSTAR": 0.0011449488, "MEAN_MOTION_DOT": 4.664e-05, "MEAN_MOTION_DDOT": 0}, "tle": {"line1": "1 34035U 93036HW  25353.96971998  .00004664  00000+0  11449-2 0  9992", "line2": "2 34035  74.0654 335.5416 0045139 335.5807  54.8592 14.52026861880715"}}, "geometry": {"type": "Point", "coordinates": [138.95263659436358, 42.88174231889547]}}, {"type": "Feature", "properties": {"norad_id": 34036, "name": "COSMOS 2251 DEB", "group": "cosmos-2251-debris", "lat": -0.13751016914550301, "lon": -46.58586303561849, "alt_km": 576.16902660696, "timestamp": "2025-12-20T14:38:02.362629+00:00", "meta": {"OBJECT_NAME": "COSMOS 2251 DEB", "OBJECT_ID": "1993-036HX", "EPOCH": "2025-12-20T04:11:57.184224", "MEAN_MOTION": 14.95518523, "ECCENTRICITY": 0.00108313, "INCLINATION": 74.0198, "RA_OF_ASC_NODE": 134.2527, "ARG_OF_PERICENTER": 164.1877, "MEAN_ANOMALY": 195.9648, "EPHEMERIS_TYPE": 0, "CLASSIFICATION_TYPE": "U", "NORAD_CAT_ID": 34036, "ELEMENT_SET_NO": 999, "REV_AT_EPOCH": 88681, "BSTAR": 0.0026004346, "MEAN_MOTION_DOT": 0.00028935, "MEAN_MOTION_DDOT": 0}, "tle": {"line1": "1 34036U 93036HX  25354.17496741  .00028935  00000+0  26004-2 0  9995", "line2": "2 34036  74.0198 134.2527 0010831 164.1877 195.9648 14.95518523886814"}}, "geometry": {"type": "Point", "coordinates": [-46.58586303561849, -0.13751016914550301]}}, {"type": "Feature", "properties": {"norad_id": 34037, "name": "COSMOS 2251 DEB", "group": "cosmos-2251-debris", "lat": -34.94736923350739, "lon": 24.511577691860516, "alt_km": 800.4778570877888, "timestamp": "2025-12-20T14:38:02.362639+00:00", "meta": {"OBJECT_NAME": "COSMOS 2251 DEB", "OBJECT_ID": "1993-036HY", "EPOCH": "2025-12-19T13:42:06.001920", "MEAN_MOTION": 14.34681394, "ECCENTRICITY": 0.0051825, "INCLINATION": 74.0512, "RA_OF_ASC_NODE": 37.9399, "ARG_OF_PERICENTER": 85.8156, "MEAN_ANOMALY": 274.8917, "EPHEMERIS_TYPE": 0, "CLASSIFICATION_TYPE": "U", "NORAD_CAT_ID": 34037, "ELEMENT_SET_NO": 999, "REV_AT_EPOCH": 87815, "BSTAR": 0.00030653, "MEAN_MOTION_DOT": 8.55e-06, "MEAN_MOTION_DDOT": 0}, "tle": {"line1": "1 34037U 93036HY  25353.57090280  .00000855  00000+0  30653-3 0  9994", "line2": "2 34037  74.0512  37.9399 0051825  85.8156 274.8917 14.34681394878152"}}, "geometry": {"type": "Point", "coordinates": [24.511577691860516, -34.94736923350739]}}, {"type": "Feature", "properties": {"norad_id": 34040, "name": "COSMOS 2251 DEB", "group": "cosmos-2251-debris", "lat": 37.84047574863017, "lon": -140.05712806126397, "alt_km": 1178.9983079827707, "timestamp": "2025-12-20T14:38:02.362650+00:00", "meta": {"OBJECT_NAME": "COSMOS 2251 DEB", "OBJECT_ID": "1993-036JB", "EPOCH": "2025-12-19T13:24:10.918080", "MEAN_MOTION": 13.68384263, "ECCENTRICITY": 0.0343262, "INCLINATION": 73.9557, "RA_OF_ASC_NODE": 54.596, "ARG_OF_PERICENTER": 6.5752, "MEAN_ANOMALY": 353.9696, "EPHEMERIS_TYPE": 0, "CLASSIFICATION_TYPE": "U", "NORAD_CAT_ID": 34040, "ELEMENT_SET_NO": 999, "REV_AT_EPOCH": 83693, "BSTAR": 0.00048435, "MEAN_MOTION_DOT": 6.02e-06, "MEAN_MOTION_DDOT": 0}, "tle": {"line1": "1 34040U 93036JB  25353.55845970  .00000602  00000+0  48435-3 0  9997", "line2": "2 34040  73.9557  54.5960 0343262   6.5752 353.9696 13.68384263836937"}}, "geometry": {"type": "Point", "coordinates": [-140.05712806126397, 37.84047574863017]}}, {"type": "Feature", "properties": {"norad_id": 34045, "name": "COSMOS 2251 DEB", "group": "cosmos-2251-debris", "lat": -8.352053507966106, "lon": -65.97631923870225, "alt_km": 765.1080147001858, "timestamp": "2025-12-20T14:38:02.362660+00:00", "meta": {"OBJECT_NAME": "COSMOS 2251 DEB", "OBJECT_ID": "1993-036JG", "EPOCH": "2025-12-20T04:55:52.155264", "MEAN_MOTION": 14.34072649, "ECCENTRICITY": 0.00259702, "INCLINATION": 74.0395, "RA_OF_ASC_NODE": 297.1711, "ARG_OF_PERICENTER": 18.5713, "MEAN_ANOMALY": 46.6385, "EPHEMERIS_TYPE": 0, "CLASSIFICATION_TYPE": "U", "NORAD_CAT_ID": 34045, "ELEMENT_SET_NO": 999, "REV_AT_EPOCH": 88140, "BSTAR": 6.7056927e-05, "MEAN_MOTION_DOT": 1.62e-06, "MEAN_MOTION_DDOT": 0}, "tle": {"line1": "1 34045U 93036JG  25354.20546476  .00000162  00000+0  67057-4 0  9997", "line2": "2 34045  74.0395 297.1711 0025970  18.5713  46.6385 14.34072649881405"}}, "geometry": {"type": "Point", "coordinates": [-65.97631923870225, -8.352053507966106]}}, {"type": "Feature", "properties": {"norad_id": 34046, "name": "COSMOS 2251 DEB", "group": "cosmos-2251-debris", "lat": -27.388538857989815, "lon": -12.749107114255212, "alt_km": 756.0755817313957, "timestamp": "2025-12-20T14:38:02.362670+00:00", "meta": {"OBJECT_NAME": "COSMOS 2251 DEB", "OBJECT_ID": "1993-036JH", "EPOCH": "2025-12-20T01:44:37.329792", "MEAN_MOTION": 14.46526924, "ECCENTRICITY": 0.00744564, "INCLINATION": 74.0389, "RA_OF_ASC_NODE": 356.7805, "ARG_OF_PERICENTER": 78.006, "MEAN_ANOMALY": 338.5486, "EPHEMERIS_TYPE": 0, "CLASSIFICATION_TYPE": "U", "NORAD_CAT_ID": 34046, "ELEMENT_SET_NO": 999, "REV_AT_EPOCH": 87932, "BSTAR": 0.00078666467, "MEAN_MOTION_DOT": 2.906e-05, "MEAN_MOTION_DDOT": 0}, "tle": {"line1": "1 34046U 93036JH  25354.07265428  .00002906  00000+0  78666-3 0  9993", "line2": "2 34046  74.0389 356.7805 0074456  78.0060 338.5486 14.46526924879320"}}, "geometry": {"type": "Point", "coordinates": [-12.749107114255212, -27.388538857989815]}}, {"type": "Feature", "properties": {"norad_id": 34050, "name": "COSMOS 2251 DEB", "group": "cosmos-2251-debris", "lat": -42.691137150298694, "lon": -168.19030013216337, "alt_km": 1064.710749452067, "timestamp": "2025-12-20T14:38:02.362680+00:00", "meta": {"OBJECT_NAME": "COSMOS 2251 DEB", "OBJECT_ID": "1993-036JM", "EPOCH": "2025-12-19T10:35:38.770080", "MEAN_MOTION": 13.96194973, "ECCENTRICITY": 0.0214635, "INCLINATION": 74.0882, "RA_OF_ASC_NODE": 358.5562, "ARG_OF_PERICENTER": 61.1529, "MEAN_ANOMALY": 52.8986, "EPHEMERIS_TYPE": 0, "CLASSIFICATION_TYPE": "U", "NORAD_CAT_ID": 34050, "ELEMENT_SET_NO": 999, "REV_AT_EPOCH": 85525, "BSTAR": 0.00051879, "MEAN_MOTION_DOT": 8.44e-06, "MEAN_MOTION_DDOT": 0}, "tle": {"line1": "1 34050U 93036JM  25353.44142095  .00000844  00000+0  51879-3 0  9998", "line2": "2 34050  74.0882 358.5562 0214635  61.1529  52.8986 13.96194973855257"}}, "geometry": {"type": "Point", "coordinates": [-168.19030013216337, -42.691137150298694]}}, {"type": "Feature", "properties": {"norad_id": 34053, "name": "COSMOS 2251 DEB", "group": "cosmos-2251-debris", "lat": -55.11589192039584, "lon": -155.07862942539728, "alt_km": 989.8991114635273, "timestamp": "2025-12-20T14:38:02.362690+00:00", "meta": {"OBJECT_NAME": "COSMOS 2251 DEB", "OBJECT_ID": "1993-036JQ", "EPOCH": "2025-12-20T02:27:05.709024", "MEAN_MOTION": 13.49172153, "ECCENTRICITY": 0.0422654, "INCLINATION": 73.8434, "RA_OF_ASC_NODE": 230.3074, "ARG_OF_PERICENTER": 17.6495, "MEAN_ANOMALY": 343.8793, "EPHEMERIS_TYPE": 0, "CLASSIFICATION_TYPE": "U", "NORAD_CAT_ID": 34053, "ELEMENT_SET_NO": 999, "REV_AT_EPOCH": 82783, "BSTAR": 0.00051859465, "MEAN_MOTION_DOT": 5.44e-06, "MEAN_MOTION_DDOT": 0}, "tle": {"line1": "1 34053U 93036JQ  25354.10214941  .00000544  00000+0  51859-3 0  9990", "line2": "2 34053  73.8434 230.3074 0422654  17.6495 343.8793 13.49172153827831"}}, "geometry": {"type": "Point", "coordinates": [-155.07862942539728, -55.11589192039584]}}, {"type": "Feature", "properties": {"norad_id": 34056, "name": "COSMOS 2251 DEB", "group": "cosmos-2251-debris", "lat": -20.36439631864095, "lon": 56.21516762473224, "alt_km": 883.901775426436, "timestamp": "2025-12-20T14:38:02.362700+00:00", "meta": {"OBJECT_NAME": "COSMOS 2251 DEB", "OBJECT_ID": "1993-036JT", "EPOCH": "2025-12-19T15:46:14.137248", "MEAN_MOTION": 14.2057922, "ECCENTRICITY": 0.0123789, "INCLINATION": 74.0586, "RA_OF_ASC_NODE": 64.0082, "ARG_OF_PERICENTER": 110.0271, "MEAN_ANOMALY": 40.0119, "EPHEMERIS_TYPE": 0, "CLASSIFICATION_TYPE": "U", "NORAD_CAT_ID": 34056, "ELEMENT_SET_NO": 999, "REV_AT_EPOCH": 86509, "BSTAR": 0.00048677, "MEAN_MOTION_DOT": 1.107e-05, "MEAN_MOTION_DDOT": 0}, "tle": {"line1": "1 34056U 93036JT  25353.65710807  .00001107  00000+0  48677-3 0  9994", "line2": "2 34056  74.0586  64.0082 0123789 110.0271  40.0119 14.20579220865097"}}, "geometry": {"type": "Point", "coordinates": [56.21516762473224, -20.36439631864095]}}]}